USA 167                 
1 27691U 03008A   26196.21775697 -.00000010  00000+0  00000+0 0  9994
2 27691  11.0153  43.1534 0003363 309.6983 256.8536  1.00269969  7050
USA 169 (MILSTAR-2 4)   
1 27711U 03012A   26195.41258556 -.00000209  00000+0  00000+0 0  9993
2 27711  12.3896  29.6159 0099315  10.2112 193.1234  1.00273302 33226
ASIASAT 4               
1 27718U 03014A   26195.62342522 -.00000234  00000+0  00000+0 0  9990
2 27718   4.7717  75.4009 0002874  36.7504 192.3026  1.00272728 45577
HELLAS-SAT 2            
1 27811U 03020A   26195.96086501 -.00000098  00000+0  00000+0 0  9998
2 27811   7.4215  67.5484 0003610  81.2139 119.9302  1.00271380 43125
THURAYA-2               
1 27825U 03026A   26196.13811462  .00000112  00000+0  00000+0 0  9997
2 27825   8.8807  31.8439 0002512  23.2983 331.5765  1.00269709 84626
OPTUS C1                
1 27831U 03028B   26195.62273242 -.00000165  00000+0  00000+0 0  9996
2 27831   6.9560  69.0735 0005213  41.2855 202.0037  1.00269179 53338
USA 170                 
1 27875U 03040A   26195.68176005  .00000113  00000+0  00000+0 0  9995
2 27875  10.5569  47.6827 0001781  78.7761  75.7565  1.00274898 33273
GALAXY 13 (HORIZONS-1)  
1 27954U 03044A   26196.20674882  .00000122  00000+0  00000+0 0  9992
2 27954   1.4892  83.5051 0002144  29.8229 104.1402  1.00271288 46852
YAMAL 202               
1 28089U 03053A   26195.79821977 -.00000093  00000+0  00000+0 0  9992
2 28089   6.4098  70.6012 0003225  42.4723 270.4812  1.00271946 82976
UFO 11 (USA 174)        
1 28117U 03057A   26196.07306127 -.00000117  00000+0  00000+0 0  9992
2 28117   8.9584  33.6857 0002687  94.9571 266.1570  1.00270234 82731
USA 176 (DSP 22)        
1 28158U 04004A   26195.40663243 -.00000309  00000+0  00000+0 0  9994
2 28158  12.0985  25.8648 0001161 290.3753  72.9911  1.00265954 33212
ABS-4 (MOBISAT-1)       
1 28184U 04007A   26196.19608332  .00000026  00000+0  00000+0 0  9996
2 28184   6.1096  71.6638 0004592  44.3289 308.5965  1.00273406 52611
INTELSAT 10-02          
1 28358U 04022A   26196.06919632 -.00000020  00000+0  00000+0 0  9995
2 28358   0.0542 249.1084 0000393 340.6567  87.0603  1.00272084 80830
ANIK F2                 
1 28378U 04027A   26196.22153314 -.00000061  00000+0  00000+0 0  9992
2 28378   3.3579  79.0729 0003592  32.1643 150.4574  1.00271501 41546
AMC-15                  
1 28446U 04041A   26196.22518706 -.00000098  00000+0  00000+0 0  9994
2 28446   0.0262 320.6342 0002127 148.2135 160.2431  1.00270786 79589
NSS-10                  
1 28526U 05003A   26196.17683823 -.00000265  00000+0  00000+0 0  9995
2 28526   6.5177  70.1093 0002646  42.0097 207.1095  1.00270048 53432
INMARSAT 4-F1           
1 28628U 05009A   26195.80819757  .00000021  00000+0  00000+0 0  9999
2 28628   5.2046  42.7864 0002505  72.8602 286.0631  1.00270638 77943
DIRECTV 8               
1 28659U 05019A   26196.21886485  .00000000  00000+0  00000+0 0  9999
2 28659   0.0196  54.4175 0003117  72.1501 126.2549  1.00270619 77359
GALAXY 28 (G-28)        
1 28702U 05022A   26196.12398787 -.00000212  00000+0  00000+0 0  9991
2 28702   3.3681  78.5873 0002511  27.0528 204.8699  1.00272010 52258
THAICOM 4               
1 28786U 05028A   26196.01042350 -.00000371  00000+0  00000+0 0  9995
2 28786   0.3152  85.4988 0001422   6.1965 324.4076  1.00272151 52521
ANIK F1R                
1 28868U 05036A   26196.22491270 -.00000087  00000+0  00000+0 0  9991
2 28868   4.3823  76.2298 0003853  17.6675 172.8328  1.00271429 46736
SYRACUSE 3A             
1 28885U 05041B   26195.98549041  .00000116  00000+0  00000+0 0  9990
2 28885   4.7104  75.4969 0002715  34.7594 224.0053  1.00274037 76021
INMARSAT 4-F2           
1 28899U 05044A   26196.01510352 -.00000272  00000+0  00000+0 0  9990
2 28899   5.1302  43.6604 0002721  61.4196 336.7187  1.00270944 75803
METEOSAT-9 (MSG-2)      
1 28912U 05049B   26195.96104627  .00000110  00000+0  00000+0 0  9998
2 28912   9.4224  53.8894 0002163 356.2461 274.3154  1.00271858  7275
EUTELSAT 174A           
1 28924U 05052A   26195.80741757 -.00000003  00000+0  00000+0 0  9991
2 28924   4.2865  76.1839 0005810  39.1991 281.8936  1.00270961 52608
ECHOSTAR 10             
1 28935U 06003A   26195.23447459 -.00000062  00000+0  00000+0 0  9994
2 28935   0.0316 315.0756 0001049 136.6098 174.6408  1.00270795 74735
SPAINSAT                
1 28945U 06007A   26195.27248231 -.00000225  00000+0  00000+0 0  9991
2 28945   0.6312  86.0683 0004622  27.1481 246.8157  1.00269577 74494
JCSAT-5A                
1 29045U 06010A   26196.01293683 -.00000338  00000+0  00000+0 0  9996
2 29045   1.1792  83.9045 0001667  20.0054 325.6448  1.00272620 74049
ASTRA 1KR               
1 29055U 06012A   26196.13308792  .00000109  00000+0  00000+0 0  9995
2 29055   0.5440  83.1699 0003304  23.1166 253.5987  1.00270371 45976
GALAXY 16 (G-16)        
1 29236U 06023A   26195.82449098 -.00000135  00000+0  00000+0 0  9998
2 29236   0.0121  96.9841 0002528  29.1770   4.3321  1.00271035 73257
EUTELSAT 33F            
1 29270U 06032A   26196.13586126  .00000145  00000+0  00000+0 0  9995
2 29270   1.7318  81.9287 0003411  28.8943 264.1315  1.00271716 47581
JCSAT-3A                
1 29272U 06033A   26196.00557174 -.00000354  00000+0  00000+0 0  9998
2 29272   0.0138  16.1042 0001795  98.1394 308.6190  1.00270684 48014
