OBJECT_NAME,OBJECT_ID,EPOCH,MEAN_MOTION,ECCENTRICITY,INCLINATION,RA_OF_ASC_NODE,ARG_OF_PERICENTER,MEAN_ANOMALY,EPHEMERIS_TYPE,CLASSIFICATION_TYPE,NORAD_CAT_ID,ELEMENT_SET_NO,REV_AT_EPOCH,BSTAR,MEAN_MOTION_DOT,MEAN_MOTION_DDOT
USA 167,2003-008A,2026-07-15T05:13:34.202208,1.00269969,.0003363,11.0153,43.1534,309.6983,256.8536,0,U,27691,999,705,0,-.1E-6,0
USA 169 (MILSTAR-2 4),2003-012A,2026-07-14T09:54:07.392384,1.00273302,.00993155,12.3896,29.6159,10.2112,193.1234,0,U,27711,999,3322,0,-.209E-5,0
ASIASAT 4,2003-014A,2026-07-14T14:57:43.939008,1.00272728,.0002874,4.7717,75.4009,36.7504,192.3026,0,U,27718,999,4557,0,-.234E-5,0
HELLAS-SAT 2,2003-020A,2026-07-14T23:03:38.736864,1.00271380,.000361,7.4215,67.5484,81.2139,119.9302,0,U,27811,999,4312,0,-.98E-6,0
THURAYA-2,2003-026A,2026-07-15T03:18:53.103168,1.00269709,.0002512,8.8807,31.8439,23.2983,331.5765,0,U,27825,999,8462,0,.112E-5,0
OPTUS C1,2003-028B,2026-07-14T14:56:44.081088,1.00269179,.00052136,6.9560,69.0735,41.2855,202.0037,0,U,27831,999,5333,0,-.165E-5,0
USA 170,2003-040A,2026-07-14T16:21:44.068320,1.00274898,.00017818,10.5569,47.6827,78.7761,75.7565,0,U,27875,999,3327,0,.113E-5,0
GALAXY 13 (HORIZONS-1),2003-044A,2026-07-15T04:57:43.098048,1.00271288,.0002144,1.4892,83.5051,29.8229,104.1402,0,U,27954,999,4685,0,.122E-5,0
YAMAL 202,2003-053A,2026-07-14T19:09:26.188128,1.00271946,.00032259,6.4098,70.6012,42.4723,270.4812,0,U,28089,999,8297,0,-.93E-6,0
UFO 11 (USA 174),2003-057A,2026-07-15T01:45:12.493728,1.00270234,.0002687,8.9584,33.6857,94.9571,266.1570,0,U,28117,999,8273,0,-.117E-5,0
USA 176 (DSP 22),2004-004A,2026-07-14T09:45:33.041952,1.00265954,.00011618,12.0985,25.8648,290.3753,72.9911,0,U,28158,999,3321,0,-.309E-5,0
ABS-4 (MOBISAT-1),2004-007A,2026-07-15T04:42:21.598848,1.00273406,.0004592,6.1096,71.6638,44.3289,308.5965,0,U,28184,999,5261,0,.26E-6,0
INTELSAT 10-02,2004-022A,2026-07-15T01:39:38.562048,1.00272084,.0000393,0.0542,249.1084,340.6567,87.0603,0,U,28358,999,8083,0,-.2E-6,0
ANIK F2,2004-027A,2026-07-15T05:19:00.463296,1.00271501,.0003592,3.3579,79.0729,32.1643,150.4574,0,U,28378,999,4154,0,-.61E-6,0
AMC-15,2004-041A,2026-07-15T05:24:16.161984,1.00270786,.0002127,0.0262,320.6342,148.2135,160.2431,0,U,28446,999,7958,0,-.98E-6,0
NSS-10,2005-003A,2026-07-15T04:14:38.823072,1.00270048,.0002646,6.5177,70.1093,42.0097,207.1095,0,U,28526,999,5343,0,-.265E-5,0
INMARSAT 4-F1,2005-009A,2026-07-14T19:23:48.270048,1.00270638,.00025054,5.2046,42.7864,72.8602,286.0631,0,U,28628,999,7794,0,.21E-6,0
DIRECTV 8,2005-019A,2026-07-15T05:15:09.923040,1.00270619,.0003117,0.0196,54.4175,72.1501,126.2549,0,U,28659,999,7735,0,0,0
GALAXY 28 (G-28),2005-022A,2026-07-15T02:58:32.551968,1.00272010,.0002511,3.3681,78.5873,27.0528,204.8699,0,U,28702,999,5225,0,-.212E-5,0
THAICOM 4,2005-028A,2026-07-15T00:15:00.590400,1.00272151,.0001422,0.3152,85.4988,6.1965,324.4076,0,U,28786,999,5252,0,-.371E-5,0
ANIK F1R,2005-036A,2026-07-15T05:23:52.457280,1.00271429,.0003853,4.3823,76.2298,17.6675,172.8328,0,U,28868,999,4673,0,-.87E-6,0
SYRACUSE 3A,2005-041B,2026-07-14T23:39:06.371424,1.00274037,.0002715,4.7104,75.4969,34.7594,224.0053,0,U,28885,999,7602,0,.116E-5,0
INMARSAT 4-F2,2005-044A,2026-07-15T00:21:44.944128,1.00270944,.0002721,5.1302,43.6604,61.4196,336.7187,0,U,28899,999,7580,0,-.272E-5,0
METEOSAT-9 (MSG-2),2005-049B,2026-07-14T23:03:54.397728,1.00271858,.0002163,9.4224,53.8894,356.2461,274.3154,0,U,28912,999,727,0,.11E-5,0
EUTELSAT 174A,2005-052A,2026-07-14T19:22:40.878048,1.00270961,.00058106,4.2865,76.1839,39.1991,281.8936,0,U,28924,999,5260,0,-.3E-7,0
ECHOSTAR 10,2006-003A,2026-07-14T05:37:38.604576,1.00270795,.00010499,0.0316,315.0756,136.6098,174.6408,0,U,28935,999,7473,0,-.62E-6,0
SPAINSAT,2006-007A,2026-07-14T06:32:22.471584,1.00269577,.00046229,0.6312,86.0683,27.1481,246.8157,0,U,28945,999,7449,0,-.225E-5,0
JCSAT-5A,2006-010A,2026-07-15T00:18:37.742112,1.00272620,.0001667,1.1792,83.9045,20.0054,325.6448,0,U,29045,999,7404,0,-.338E-5,0
ASTRA 1KR,2006-012A,2026-07-15T03:11:38.796288,1.00270371,.0003304,0.5440,83.1699,23.1166,253.5987,0,U,29055,999,4597,0,.109E-5,0
GALAXY 16 (G-16),2006-023A,2026-07-14T19:47:16.020672,1.00271035,.00025289,0.0121,96.9841,29.1770,4.3321,0,U,29236,999,7325,0,-.135E-5,0
EUTELSAT 33F,2006-032A,2026-07-15T03:15:38.412864,1.00271716,.0003411,1.7318,81.9287,28.8943,264.1315,0,U,29270,999,4758,0,.145E-5,0
JCSAT-3A,2006-033A,2026-07-15T00:08:01.398336,1.00270684,.0001795,0.0138,16.1042,98.1394,308.6190,0,U,29272,999,4801,0,-.354E-5,0
